{"type": "FeatureCollection", "features": [ {"type": "Feature", "properties": {"norad_id": 44804, "name": "CARTOSAT-3", "group": "resource", "lat": 5.281579499397032, "lon": -120.18514810051437, "alt_km": 516.7513801965506, "timestamp": "2025-12-25T16:53:14.311700+00:00", "meta": {"OBJECT_NAME": "CARTOSAT-3", "OBJECT_ID": "2019-081A", "EPOCH": "2025-12-25T06:38:16.881792", "MEAN_MOTION": 15.19254583, "ECCENTRICITY": 0.00136488, "INCLINATION": 97.4563, "RA_OF_ASC_NODE": 58.6996, "ARG_OF_PERICENTER": 43.9438, "MEAN_ANOMALY": 316.2879, "EPHEMERIS_TYPE": 0, "CLASSIFICATION_TYPE": "U", "NORAD_CAT_ID": 44804, "ELEMENT_SET_NO": 999, "REV_AT_EPOCH": 33706, "BSTAR": 0.00014406766, "MEAN_MOTION_DOT": 2.974e-05, "MEAN_MOTION_DDOT": 0}, "tle": {"line1": "1 44804U 19081A   25359.27658428  .00002974  00000+0  14407-3 0  9995", "line2": "2 44804  97.4563  58.6996 0013648  43.9438 316.2879 15.19254583337060"}}, "geometry": {"type": "Point", "coordinates": [-120.18514810051437, 5.281579499397032]}}, {"type": "Feature", "properties": {"norad_id": 44819, "name": "GAOFEN-12 01", "group": "resource", "lat": -75.37365328965643, "lon": 37.38679694044979, "alt_km": 634.9564458724162, "timestamp": "2025-12-25T16:53:14.311710+00:00", "meta": {"OBJECT_NAME": "GAOFEN-12 01", "OBJECT_ID": "2019-082A", "EPOCH": "2025-12-25T07:30:22.262688", "MEAN_MOTION": 14.80671482, "ECCENTRICITY": 0.00022292, "INCLINATION": 97.8125, "RA_OF_ASC_NODE": 5.2637, "ARG_OF_PERICENTER": 177.9601, "MEAN_ANOMALY": 182.1621, "EPHEMERIS_TYPE": 0, "CLASSIFICATION_TYPE": "U", "NORAD_CAT_ID": 44819, "ELEMENT_SET_NO": 999, "REV_AT_EPOCH": 32836, "BSTAR": 7.1503226e-05, "MEAN_MOTION_DOT": 4.99e-06, "MEAN_MOTION_DDOT": 0}, "tle": {"line1": "1 44819U 19082A   25359.31275767  .00000499  00000+0  71503-4 0  9999", "line2": "2 44819  97.8125   5.2637 0002229 177.9601 182.1621 14.80671482328363"}}, "geometry": {"type": "Point", "coordinates": [37.38679694044979, -75.37365328965643]}}, {"type": "Feature", "properties": {"norad_id": 44873, "name": "CSG-1", "group": "resource", "lat": 74.93083399069063, "lon": 31.791985114460644, "alt_km": 614.4149736721583, "timestamp": "2025-12-25T16:53:14.311720+00:00", "meta": {"OBJECT_NAME": "CSG-1", "OBJECT_ID": "2019-092A", "EPOCH": "2025-12-25T06:42:12.773664", "MEAN_MOTION": 14.8216085, "ECCENTRICITY": 0.00014687, "INCLINATION": 97.8805, "RA_OF_ASC_NODE": 180.4146, "ARG_OF_PERICENTER": 84.4389, "MEAN_ANOMALY": 275.6992, "EPHEMERIS_TYPE": 0, "CLASSIFICATION_TYPE": "U", "NORAD_CAT_ID": 44873, "ELEMENT_SET_NO": 999, "REV_AT_EPOCH": 32571, "BSTAR": 8.4871546e-05, "MEAN_MOTION_DOT": 6.24e-06, "MEAN_MOTION_DDOT": 0}, "tle": {"line1": "1 44873U 19092A   25359.27931451  .00000624  00000+0  84872-4 0  9997", "line2": "2 44873  97.8805 180.4146 0001468  84.4389 275.6992 14.82160850325717"}}, "geometry": {"type": "Point", "coordinates": [31.791985114460644, 74.93083399069063]}}, {"type": "Feature", "properties": {"norad_id": 46277, "name": "NEMO-HD", "group": "resource", "lat": 79.30287484295643, "lon": -79.21834706534892, "alt_km": 436.5294472492442, "timestamp": "2025-12-25T16:53:14.311730+00:00", "meta": {"OBJECT_NAME": "NEMO-HD", "OBJECT_ID": "2020-061F", "EPOCH": "2025-12-25T07:06:38.947968", "MEAN_MOTION": 15.40581343, "ECCENTRICITY": 0.00010532, "INCLINATION": 97.2188, "RA_OF_ASC_NODE": 58.2348, "ARG_OF_PERICENTER": 53.0867, "MEAN_ANOMALY": 307.0476, "EPHEMERIS_TYPE": 0, "CLASSIFICATION_TYPE": "U", "NORAD_CAT_ID": 46277, "ELEMENT_SET_NO": 999, "REV_AT_EPOCH": 29517, "BSTAR": 0.00027212281, "MEAN_MOTION_DOT": 0.00010987, "MEAN_MOTION_DDOT": 0}, "tle": {"line1": "1 46277U 20061F   25359.29628412  .00010987  00000+0  27212-3 0  9994", "line2": "2 46277  97.2188  58.2348 0001053  53.0867 307.0476 15.40581343295176"}}, "geometry": {"type": "Point", "coordinates": [-79.21834706534892, 79.30287484295643]}}, {"type": "Feature", "properties": {"norad_id": 46984, "name": "SENTINEL-6A", "group": "resource", "lat": 56.347311470492095, "lon": -86.5234435082641, "alt_km": 1336.8493276793388, "timestamp": "2025-12-25T16:53:14.311740+00:00", "meta": {"OBJECT_NAME": "SENTINEL-6A", "OBJECT_ID": "2020-086A", "EPOCH": "2025-12-24T15:55:56.858592", "MEAN_MOTION": 12.80930713, "ECCENTRICITY": 0.00077606, "INCLINATION": 66.0399, "RA_OF_ASC_NODE": 137.5413, "ARG_OF_PERICENTER": 269.4223, "MEAN_ANOMALY": 90.5903, "EPHEMERIS_TYPE": 0, "CLASSIFICATION_TYPE": "U", "NORAD_CAT_ID": 46984, "ELEMENT_SET_NO": 999, "REV_AT_EPOCH": 23797, "BSTAR": -9.062628e-06, "MEAN_MOTION_DOT": -6.3e-07, "MEAN_MOTION_DDOT": 0}, "tle": {"line1": "1 46984U 20086A   25358.66385253 -.00000063  00000+0 -90626-5 0  9996", "line2": "2 46984  66.0399 137.5413 0007760 269.4223  90.5903 12.80930713237976"}}, "geometry": {"type": "Point", "coordinates": [-86.5234435082641, 56.347311470492095]}}, {"type": "Feature", "properties": {"norad_id": 48079, "name": "GAOFEN-12 02", "group": "resource", "lat": -64.17303528418643, "lon": 10.508474479209985, "alt_km": 636.2646109496791, "timestamp": "2025-12-25T16:53:14.311750+00:00", "meta": {"OBJECT_NAME": "GAOFEN-12 02", "OBJECT_ID": "2021-026A", "EPOCH": "2025-12-25T07:27:03.616128", "MEAN_MOTION": 14.80689488, "ECCENTRICITY": 0.000355, "INCLINATION": 97.9857, "RA_OF_ASC_NODE": 353.2566, "ARG_OF_PERICENTER": 75.9021, "MEAN_ANOMALY": 284.2586, "EPHEMERIS_TYPE": 0, "CLASSIFICATION_TYPE": "U", "NORAD_CAT_ID": 48079, "ELEMENT_SET_NO": 999, "REV_AT_EPOCH": 25603, "BSTAR": 7.375321e-05, "MEAN_MOTION_DOT": 5.14e-06, "MEAN_MOTION_DDOT": 0}, "tle": {"line1": "1 48079U 21026A   25359.31045852  .00000514  00000+0  73753-4 0  9999", "line2": "2 48079  97.9857 353.2566 0003550  75.9021 284.2586 14.80689488256039"}}, "geometry": {"type": "Point", "coordinates": [10.508474479209985, -64.17303528418643]}}, {"type": "Feature", "properties": {"norad_id": 48268, "name": "PLEIADES NEO 3", "group": "resource", "lat": 47.0552313286489, "lon": 63.38513722688522, "alt_km": 619.1814813996698, "timestamp": "2025-12-25T16:53:14.311760+00:00", "meta": {"OBJECT_NAME": "PLEIADES NEO 3", "OBJECT_ID": "2021-034A", "EPOCH": "2025-12-25T06:56:54.007008", "MEAN_MOTION": 14.81671515, "ECCENTRICITY": 0.00013434, "INCLINATION": 97.8943, "RA_OF_ASC_NODE": 71.5508, "ARG_OF_PERICENTER": 87.5011, "MEAN_ANOMALY": 272.6355, "EPHEMERIS_TYPE": 0, "CLASSIFICATION_TYPE": "U", "NORAD_CAT_ID": 48268, "ELEMENT_SET_NO": 999, "REV_AT_EPOCH": 25190, "BSTAR": -7.754159e-06, "MEAN_MOTION_DOT": -1.13e-06, "MEAN_MOTION_DDOT": 0}, "tle": {"line1": "1 48268U 21034A   25359.28951397 -.00000113  00000+0 -77542-5 0  9992", "line2": "2 48268  97.8943  71.5508 0001343  87.5011 272.6355 14.81671515251905"}}, "geometry": {"type": "Point", "coordinates": [63.38513722688522, 47.0552313286489]}}, {"type": "Feature", "properties": {"norad_id": 49070, "name": "PLEIADES NEO 4", "group": "resource", "lat": -47.30920403793863, "lon": -116.69643881037003, "alt_km": 631.6030577744714, "timestamp": "2025-12-25T16:53:14.311773+00:00", "meta": {"OBJECT_NAME": "PLEIADES NEO 4", "OBJECT_ID": "2021-073E", "EPOCH": "2025-12-25T06:08:15.448704", "MEAN_MOTION": 14.81674507, "ECCENTRICITY": 0.00013839, "INCLINATION": 97.8945, "RA_OF_ASC_NODE": 71.5133, "ARG_OF_PERICENTER": 90.331, "MEAN_ANOMALY": 269.8061, "EPHEMERIS_TYPE": 0, "CLASSIFICATION_TYPE": "U", "NORAD_CAT_ID": 49070, "ELEMENT_SET_NO": 999, "REV_AT_EPOCH": 23561, "BSTAR": -2.0348261e-05, "MEAN_MOTION_DOT": -2.12e-06, "MEAN_MOTION_DDOT": 0}, "tle": {"line1": "1 49070U 21073E   25359.25573436 -.00000212  00000+0 -20348-4 0  9999", "line2": "2 49070  97.8945  71.5133 0001383  90.3310 269.8061 14.81674507235617"}}, "geometry": {"type": "Point", "coordinates": [-116.69643881037003, -47.30920403793863]}}, {"type": "Feature", "properties": {"norad_id": 49260, "name": "LANDSAT 9", "group": "resource", "lat": 0.03990266739978042, "lon": -112.36859204109383, "alt_km": 705.4670080857122, "timestamp": "2025-12-25T16:53:14.311783+00:00", "meta": {"OBJECT_NAME": "LANDSAT 9", "OBJECT_ID": "2021-088A", "EPOCH": "2025-12-25T04:31:41.451744", "MEAN_MOTION": 14.57110378, "ECCENTRICITY": 0.00011123, "INCLINATION": 98.2077, "RA_OF_ASC_NODE": 67.1183, "ARG_OF_PERICENTER": 93.3814, "MEAN_ANOMALY": 266.7512, "EPHEMERIS_TYPE": 0, "CLASSIFICATION_TYPE": "U", "NORAD_CAT_ID": 49260, "ELEMENT_SET_NO": 999, "REV_AT_EPOCH": 22566, "BSTAR": 0.00010890709, "MEAN_MOTION_DOT": 4.45e-06, "MEAN_MOTION_DDOT": 0}, "tle": {"line1": "1 49260U 21088A   25359.18867421  .00000445  00000+0  10891-3 0  9995", "line2": "2 49260  98.2077  67.1183 0001112  93.3814 266.7512 14.57110378225662"}}, "geometry": {"type": "Point", "coordinates": [-112.36859204109383, 0.03990266739978042]}}, {"type": "Feature", "properties": {"norad_id": 51444, "name": "CSG-2", "group": "resource", "lat": -75.01730095772928, "lon": -148.00147634960342, "alt_km": 630.8066631085112, "timestamp": "2025-12-25T16:53:14.311793+00:00", "meta": {"OBJECT_NAME": "CSG-2", "OBJECT_ID": "2022-008A", "EPOCH": "2025-12-25T05:53:36.720960", "MEAN_MOTION": 14.82153798, "ECCENTRICITY": 0.0001449, "INCLINATION": 97.8805, "RA_OF_ASC_NODE": 180.3799, "ARG_OF_PERICENTER": 83.3954, "MEAN_ANOMALY": 276.7425, "EPHEMERIS_TYPE": 0, "CLASSIFICATION_TYPE": "U", "NORAD_CAT_ID": 51444, "ELEMENT_SET_NO": 999, "REV_AT_EPOCH": 21082, "BSTAR": -4.77893e-06, "MEAN_MOTION_DOT": -9e-07, "MEAN_MOTION_DDOT": 0}, "tle": {"line1": "1 51444U 22008A   25359.24556390 -.00000090  00000+0 -47789-5 0  9998", "line2": "2 51444  97.8805 180.3799 0001449  83.3954 276.7425 14.82153798210828"}}, "geometry": {"type": "Point", "coordinates": [-148.00147634960342, -75.01730095772928]}}]}